NORAD_CAT_ID,OBJECT_NAME,OBJECT_TYPE,EPOCH,MEAN_MOTION,ECCENTRICITY,INCLINATION,RA_OF_ASC_NODE,ARG_OF_PERICENTER,MEAN_ANOMALY,BSTAR,MEAN_MOTION_DOT,MEAN_MOTION_DDOT,TLE_LINE0,TLE_LINE1,TLE_LINE2,SEMIMAJOR_AXIS,PERIOD,APOGEE,PERIGEE,DECAYED
49451.0,STARLINK-3125,PAYLOAD,2022-11-15 12:57:23,15.08844732,0.0002741,53.2165,251.7056,29.2196,330.8949,0.00048597,7.456e-05,0.0,0 STARLINK-3125,1 49451U 21104AV  22319.53985610  .00007456  00000-0  48597-3 0  9993,2 49451  53.2165 251.7056 0002741  29.2196 330.8949 15.08844732 56083,6917.866,95.437,541.627,537.835,0.0
49451.0,STARLINK-3125,PAYLOAD,2022-11-16 04:51:14,15.08850547,0.0002701,53.2158,248.7319,29.9256,330.189,0.00034682,5.237e-05,0.0,0 STARLINK-3125,1 49451U 21104AV  22320.20225568  .00005237  00000-0  34682-3 0  9993,2 49451  53.2158 248.7319 0002701  29.9256 330.1890 15.08850547 56183,6917.848000000001,95.437,541.582,537.845,0.0
49451.0,STARLINK-3125,PAYLOAD,2022-11-16 19:09:43,15.0883124,0.000266,53.2156,246.0558,30.5517,329.5629,1.2292e-05,-9.3e-07,0.0,0 STARLINK-3125,1 49451U 21104AV  22320.79842299 -.00000093  00000-0  12292-4 0  9993,2 49451  53.2156 246.0558 0002660  30.5517 329.5629 15.08831240 57350,6917.906999999997,95.438,541.612,537.932,0.0
49451.0,STARLINK-3125,PAYLOAD,2022-11-17 01:31:16,15.08821276,0.0002763,53.2158,244.8665,26.7935,333.32,-7.709999999999999e-05,-1.515e-05,0.0,0 STARLINK-3125,1 49451U 21104AV  22321.06338817 -.00001515  00000-0 -77100-4 0  9990,2 49451  53.2158 244.8665 0002763  26.7935 333.3200 15.08821276 57392,6917.938,95.439,541.714,537.891,0.0
49451.0,STARLINK-3125,PAYLOAD,2022-11-17 23:46:40,15.08838984,0.0002868,53.2165,240.7038,27.8699,332.2446,0.0003626,5.487e-05,0.0,0 STARLINK-3125,1 49451U 21104AV  22321.99075222  .00005487  00000-0  36260-3 0  9991,2 49451  53.2165 240.7038 0002868  27.8699 332.2446 15.08838984 57534,6917.8830000000025,95.438,541.7330000000002,537.764,0.0
49451.0,STARLINK-3125,PAYLOAD,2022-11-18 01:22:04,15.08842928,0.0002869,53.2165,240.4062,29.7218,330.3937,0.00046843,7.175e-05,0.0,0 STARLINK-3125,1 49451U 21104AV  22322.05699151  .00007175  00000-0  46843-3 0  9996,2 49451  53.2165 240.4062 0002869  29.7218 330.3937 15.08842928 56465,6917.871,95.437,541.721,537.752,0.0
49451.0,STARLINK-3125,PAYLOAD,2022-11-19 04:23:36,15.08865693,0.0002872,53.2166,235.3508,31.4683,328.6481,0.00056422,8.709e-05,0.0,0 STARLINK-3125,1 49451U 21104AV  22323.18306019  .00008709  00000-0  56422-3 0  9997,2 49451  53.2166 235.3508 0002872  31.4683 328.6481 15.08865693 57711,6917.802,95.436,541.654,537.68,0.0
49451.0,STARLINK-3125,PAYLOAD,2022-11-19 10:45:08,15.08864393,0.0002897,53.2168,234.1611,31.7898,328.3269,0.00039813,6.058e-05,0.0,0 STARLINK-3125,1 49451U 21104AV  22323.44801695  .00006058  00000-0  39813-3 0  9996,2 49451  53.2168 234.1611 0002897  31.7898 328.3269 15.08864393 56674,6917.806,95.436,541.675,537.6669999999998,0.0
49451.0,STARLINK-3125,PAYLOAD,2022-11-19 18:42:04,15.08858288,0.00027,53.217,232.6741,38.534,321.5845,0.00010656,1.409e-05,0.0,0 STARLINK-3125,1 49451U 21104AV  22323.77921390  .00001409  00000-0  10656-3 0  9996,2 49451  53.2170 232.6741 0002700  38.5340 321.5845 15.08858288 57801,6917.824000000001,95.436,541.557,537.822,0.0
49451.0,STARLINK-3125,PAYLOAD,2022-11-20 04:14:23,15.08840527,0.0002867,53.2166,230.8908,32.6823,327.4346,-0.00020156,-3.495e-05,0.0,0 STARLINK-3125,1 49451U 21104AV  22324.17665904 -.00003495  00000-0 -20156-3 0  9992,2 49451  53.2166 230.8908 0002867  32.6823 327.4346 15.08840527 57860,6917.879,95.438,541.727,537.76,0.0
49451.0,STARLINK-3125,PAYLOAD,2022-11-20 18:32:51,15.08846974,0.0002866,53.2167,228.2141,27.5917,332.5227,2.8623e-05,1.67e-06,0.0,0 STARLINK-3125,1 49451U 21104AV  22324.77281497  .00000167  00000-0  28623-4 0  9998,2 49451  53.2167 228.2141 0002866  27.5917 332.5227 15.08846974 56874,6917.859,95.437,541.707,537.741,0.0
49451.0,STARLINK-3125,PAYLOAD,2022-11-21 02:29:46,15.088502800000002,0.0002898,53.2168,226.7273,28.4317,331.6833,7.6741e-05,9.33e-06,0.0,0 STARLINK-3125,1 49451U 21104AV  22325.10401153  .00000933  00000-0  76741-4 0  9994,2 49451  53.2168 226.7273 0002898  28.4317 331.6833 15.08850280 58008,6917.849,95.437,541.719,537.7090000000002,0.0
49451.0,STARLINK-3125,PAYLOAD,2022-11-21 16:48:14,15.08845604,0.0002901999999999,53.216,224.0516,28.433000000000003,331.682,9.5938e-06,-1.36e-06,0.0,0 STARLINK-3125,1 49451U 21104AV  22325.70017221 -.00000136  00000-0  95938-5 0  9995,2 49451  53.2160 224.0516 0002902  28.4330 331.6820 15.08845604 58091,6917.863,95.437,541.736,537.721,0.0
49451.0,STARLINK-3125,PAYLOAD,2022-11-22 02:20:34,15.08834857,0.0002932,53.2168,222.2668,28.9513,331.1642,2.6383e-05,1.31e-06,0.0,0 STARLINK-3125,1 49451U 21104AV  22326.09761914  .00000131  00000-0  26383-4 0  9994,2 49451  53.2168 222.2668 0002932  28.9513 331.1642 15.08834857 58150,6917.896,95.438,541.789,537.7330000000002,0.0
49451.0,STARLINK-3125,PAYLOAD,2022-11-22 10:17:30,15.08836749,0.0002811,53.2176,220.7795,30.5606,329.5549,0.00013242,1.819e-05,0.0,0 STARLINK-3125,1 49451U 21104AV  22326.42882019  .00001819  00000-0  13242-3 0  9994,2 49451  53.2176 220.7795 0002811  30.5606 329.5549 15.08836749 57126,6917.89,95.438,541.7,537.811,0.0
49451.0,STARLINK-3125,PAYLOAD,2022-11-22 18:14:25,15.08849886,0.000285,53.2168,219.2927,26.5192,333.5945,4.3654e-05,4.06e-06,0.0,0 STARLINK-3125,1 49451U 21104AV  22326.76001295  .00000406  00000-0  43654-4 0  9992,2 49451  53.2168 219.2927 0002850  26.5192 333.5945 15.08849886 58251,6917.85,95.437,541.687,537.744,0.0
49451.0,STARLINK-3125,PAYLOAD,2022-11-23 02:11:21,15.08837709,0.0002807,53.217,217.807,28.1625,331.9519,-2.702800000000001e-05,-7.19e-06,0.0,0 STARLINK-3125,1 49451U 21104AV  22327.09122093 -.00000719  00000-0 -27028-4 0  9995,2 49451  53.2170 217.8070 0002807  28.1625 331.9519 15.08837709 58304,6917.887,95.438,541.694,537.811,0.0
49451.0,STARLINK-3125,PAYLOAD,2022-11-23 10:08:17,15.08837735,0.0002972,53.2174,216.3208,30.638,329.4785,2.6736e-05,1.37e-06,0.0,0 STARLINK-3125,1 49451U 21104AV  22327.42242098  .00000137  00000-0  26736-4 0  9997,2 49451  53.2174 216.3208 0002972  30.6380 329.4785 15.08837735 57275,6917.887,95.438,541.808,537.696,0.0
49451.0,STARLINK-3125,PAYLOAD,2022-11-24 02:02:08,15.08842019,0.0002878999999999,53.2174,213.3462,31.4407,328.6757,0.00013685,1.89e-05,0.0,0 STARLINK-3125,1 49451U 21104AV  22328.08481538  .00001890  00000-0  13685-3 0  9999,2 49451  53.2174 213.3462 0002879  31.4407 328.6757 15.08842019 58451,6917.874,95.437,541.731,537.748,0.0
49451.0,STARLINK-3125,PAYLOAD,2022-11-24 09:59:04,15.08840187,0.000299,53.2172,211.8599,31.9278,328.1895,8.526200000000001e-05,1.069e-05,0.0,0 STARLINK-3125,1 49451U 21104AV  22328.41601886  .00001069  00000-0  85262-4 0  9995,2 49451  53.2172 211.8599 0002990  31.9278 328.1895 15.08840187 57426,6917.88,95.438,541.813,537.6759999999998,0.0
49451.0,STARLINK-3125,PAYLOAD,2022-11-24 22:42:09,15.08839164,0.000293,53.2173,209.4807,32.9681,327.1493,1.3421e-05,-7.5e-07,0.0,0 STARLINK-3125,1 49451U 21104AV  22328.94594081 -.00000075  00000-0  13421-4 0  9996,2 49451  53.2173 209.4807 0002930  32.9681 327.1493 15.08839164 58589,6917.8830000000025,95.438,541.775,537.721,0.0
49451.0,STARLINK-3125,PAYLOAD,2022-11-25 01:52:55,15.08836843,0.0002972,53.2172,208.8862,33.4616,326.6563,7.6716e-05,9.32e-06,0.0,0 STARLINK-3125,1 49451U 21104AV  22329.07842079  .00000932  00000-0  76716-4 0  9991,2 49451  53.2172 208.8862 0002972  33.4616 326.6563 15.08836843 57528,6917.89,95.438,541.811,537.6990000000002,0.0
49451.0,STARLINK-3125,PAYLOAD,2022-11-25 19:22:09,15.08848969,0.0002996,53.2171,205.615,35.8062,324.3131,0.00010913,1.449e-05,0.0,0 STARLINK-3125,1 49451U 21104AV  22329.80705151  .00001449  00000-0  10913-3 0  9991,2 49451  53.2171 205.6150 0002996  35.8062 324.3131 15.08848969 57639,6917.853,95.437,541.7909999999998,537.645,0.0
49451.0,STARLINK-3125,PAYLOAD,2022-11-25 22:32:55,15.08848224,0.0003025,53.2172,205.0207,35.159,324.9601,7.0122e-05,8.28e-06,0.0,0 STARLINK-3125,1 49451U 21104AV  22329.93953332  .00000828  00000-0  70122-4 0  9990,2 49451  53.2172 205.0207 0003025  35.1590 324.9601 15.08848224 58734,6917.855,95.437,541.813,537.628,0.0
49451.0,STARLINK-3125,PAYLOAD,2022-11-26 16:02:10,15.08840652,0.0002937,53.2173,201.7494,32.4313,327.6859,0.00011318,1.513e-05,0.0,0 STARLINK-3125,1 49451U 21104AV  22330.66817443  .00001513  00000-0  11318-3 0  9997,2 49451  53.2173 201.7494 0002937  32.4313 327.6859 15.08840652 58844,6917.878000000002,95.438,541.775,537.712,0.0
49451.0,STARLINK-3125,PAYLOAD,2022-11-27 01:34:28,15.08846376,0.0002905,53.2155,199.967,32.9266,327.1907,3.8768e-05,3.29e-06,0.0,0 STARLINK-3125,1 49451U 21104AV  22331.06561178  .00000329  00000-0  38768-4 0  9996,2 49451  53.2155 199.9670 0002905  32.9266 327.1907 15.08846376 57820,6917.861,95.437,541.736,537.716,0.0
49451.0,STARLINK-3125,PAYLOAD,2022-11-27 22:14:30,15.08827641,0.0002981,53.2166,196.0996,33.5331,326.5849,-5.4571e-05,-1.157e-05,0.0,0 STARLINK-3125,1 49451U 21104AV  22331.92674689 -.00001157  00000-0 -54571-4 0  9995,2 49451  53.2166 196.0996 0002981  33.5331 326.5849 15.08827641 59032,6917.918000000002,95.438,541.845,537.721,0.0
49451.0,STARLINK-3125,PAYLOAD,2022-11-28 07:46:49,15.08832125,0.0002984,53.2169,194.3155,34.9229,325.1958,-2.4465e-05,-6.78e-06,0.0,0 STARLINK-3125,1 49451U 21104AV  22332.32418552 -.00000678  00000-0 -24465-4 0  9991,2 49451  53.2169 194.3155 0002984  34.9229 325.1958 15.08832125 59092,6917.904,95.438,541.8340000000002,537.705,0.0
49451.0,STARLINK-3125,PAYLOAD,2022-11-28 22:05:17,15.08839066,0.0002991,53.2169,191.639,36.2584,323.8611,-3.1008e-05,-7.82e-06,0.0,0 STARLINK-3125,1 49451U 21104AV  22332.92034327 -.00000782  00000-0 -31008-4 0  9998,2 49451  53.2169 191.6390 0002991  36.2584 323.8611 15.08839066 59182,6917.8830000000025,95.438,541.817,537.679,0.0
